CYGNUS NG-23            
1 65616U 25208A   25360.85713459  .00014958  00000+0  27092-3 0  9998
2 65616  51.6319  72.5609 0003230 307.0606  53.0087 15.49855582   229
DRAGONFLY               
1 65729U 98067XH  25360.45010801  .00204396  00000+0  12148-2 0  9995
2 65729  51.6248  65.3139 0008231 358.0707   2.0260 15.76805342 15320
1998-067XK              
1 65731U 98067XK  25360.89113411  .00119786  00000+0  10262-2 0  9990
2 65731  51.6280  65.2916 0005094 333.5043  26.5692 15.68524225 15369
RSP-03                  
1 65732U 98067XL  25361.18372918  .00171198  00000+0  12340-2 0  9997
2 65732  51.6260  62.7293 0006157 342.7468  17.3320 15.72475718 15433
GHS-01                  
1 65733U 98067XM  25360.87604566  .00319127  00000+0  15055-2 0  9992
2 65733  51.6277  62.1658 0009494   4.8401 355.2691 15.81574264 15410
YOTSUBA-KULOVER         
1 65941U 98067XN  25360.61031981  .00073250  00000+0  84262-3 0  9991
2 65941  51.6289  70.1673 0002571   5.6559 354.4463 15.61332207 12021
BOTAN                   
1 65942U 98067XP  25360.90000154  .00132903  00000+0  12627-2 0  9998
2 65942  51.6276  67.6002 0003620 350.1731   9.9193 15.65926329 12087
E-KAGAKU-1              
1 65943U 98067XQ  25360.48238675  .00069021  00000+0  79497-3 0  9992
2 65943  51.6304  70.8185 0001473 333.5123  26.5795 15.61326456 12008
HRC MONOBLOCK CAMERA    
1 66052U 98067XR  25361.17870872  .00038230  00000+0  56068-3 0  9999
2 66052  51.6303  69.4595 0001868 257.1988 102.8794 15.55149311 11086
HTV-X1                  
1 66174U 25241A   25360.85713459  .00014958  00000+0  27092-3 0  9995
2 66174  51.6319  72.5609 0003230 307.0606  53.0087 15.49855582   511
SZ-21 MODULE            
1 66515U 25246C   25361.17281042  .00032194  00000+0  34324-3 0  9991
2 66515  41.4764 287.9534 0004159 338.5057  21.5607 15.63263847  6708
SHENZHOU-22             
1 66645U 25272A   25360.93177270  .00018761  00000+0  23104-3 0  9992
2 66645  41.4675 290.5114 0008732 154.9410 205.1854 15.59735336265984
