CCSDS_OMM_VERS = 2.0
CREATION_DATE  = 
ORIGINATOR     = 

OBJECT_NAME    = CYGNUS NG-23
OBJECT_ID      = 2025-208A
CENTER_NAME    = EARTH
REF_FRAME      = TEME
TIME_SYSTEM    = UTC
MEAN_ELEMENT_THEORY = SGP/SGP4

EPOCH          = 2025-12-26T20:34:16.428576
MEAN_MOTION    = 15.49855582
ECCENTRICITY   = .00032301
INCLINATION    = 51.6319
RA_OF_ASC_NODE = 72.5609
ARG_OF_PERICENTER = 307.0606
MEAN_ANOMALY   = 53.0087

EPHEMERIS_TYPE = 0
CLASSIFICATION_TYPE = U
NORAD_CAT_ID   = 65616
ELEMENT_SET_NO = 999
REV_AT_EPOCH   = 22
BSTAR          = .27091986E-3
MEAN_MOTION_DOT = .14958E-3
MEAN_MOTION_DDOT = 0

CCSDS_OMM_VERS = 2.0
CREATION_DATE  = 
ORIGINATOR     = 

OBJECT_NAME    = DRAGONFLY
OBJECT_ID      = 1998-067XH
CENTER_NAME    = EARTH
REF_FRAME      = TEME
TIME_SYSTEM    = UTC
MEAN_ELEMENT_THEORY = SGP/SGP4

EPOCH          = 2025-12-26T10:48:09.332064
MEAN_MOTION    = 15.76805342
ECCENTRICITY   = .0008231
INCLINATION    = 51.6248
RA_OF_ASC_NODE = 65.3139
ARG_OF_PERICENTER = 358.0707
MEAN_ANOMALY   = 2.0260

EPHEMERIS_TYPE = 0
CLASSIFICATION_TYPE = U
NORAD_CAT_ID   = 65729
ELEMENT_SET_NO = 999
REV_AT_EPOCH   = 1532
BSTAR          = .12148E-2
MEAN_MOTION_DOT = .204396E-2
MEAN_MOTION_DDOT = 0

CCSDS_OMM_VERS = 2.0
CREATION_DATE  = 
ORIGINATOR     = 

OBJECT_NAME    = 1998-067XK
OBJECT_ID      = 1998-067XK
CENTER_NAME    = EARTH
REF_FRAME      = TEME
TIME_SYSTEM    = UTC
MEAN_ELEMENT_THEORY = SGP/SGP4

EPOCH          = 2025-12-26T21:23:13.987104
MEAN_MOTION    = 15.68524225
ECCENTRICITY   = .0005094
INCLINATION    = 51.6280
RA_OF_ASC_NODE = 65.2916
ARG_OF_PERICENTER = 333.5043
MEAN_ANOMALY   = 26.5692

EPHEMERIS_TYPE = 0
CLASSIFICATION_TYPE = U
NORAD_CAT_ID   = 65731
ELEMENT_SET_NO = 999
REV_AT_EPOCH   = 1536
BSTAR          = .10262E-2
MEAN_MOTION_DOT = .119786E-2
MEAN_MOTION_DDOT = 0

CCSDS_OMM_VERS = 2.0
CREATION_DATE  = 
ORIGINATOR     = 

OBJECT_NAME    = RSP-03
OBJECT_ID      = 1998-067XL
CENTER_NAME    = EARTH
REF_FRAME      = TEME
TIME_SYSTEM    = UTC
MEAN_ELEMENT_THEORY = SGP/SGP4

EPOCH          = 2025-12-27T04:24:34.201152
MEAN_MOTION    = 15.72475718
ECCENTRICITY   = .0006157
INCLINATION    = 51.6260
RA_OF_ASC_NODE = 62.7293
ARG_OF_PERICENTER = 342.7468
MEAN_ANOMALY   = 17.3320

EPHEMERIS_TYPE = 0
CLASSIFICATION_TYPE = U
NORAD_CAT_ID   = 65732
ELEMENT_SET_NO = 999
REV_AT_EPOCH   = 1543
BSTAR          = .1234E-2
MEAN_MOTION_DOT = .171198E-2
MEAN_MOTION_DDOT = 0

CCSDS_OMM_VERS = 2.0
CREATION_DATE  = 
ORIGINATOR     = 

OBJECT_NAME    = GHS-01
OBJECT_ID      = 1998-067XM
CENTER_NAME    = EARTH
REF_FRAME      = TEME
TIME_SYSTEM    = UTC
MEAN_ELEMENT_THEORY = SGP/SGP4

EPOCH          = 2025-12-26T21:01:30.345024
MEAN_MOTION    = 15.81574264
ECCENTRICITY   = .0009494
INCLINATION    = 51.6277
RA_OF_ASC_NODE = 62.1658
ARG_OF_PERICENTER = 4.8401
MEAN_ANOMALY   = 355.2691

EPHEMERIS_TYPE = 0
CLASSIFICATION_TYPE = U
NORAD_CAT_ID   = 65733
ELEMENT_SET_NO = 999
REV_AT_EPOCH   = 1541
BSTAR          = .15055E-2
MEAN_MOTION_DOT = .319127E-2
MEAN_MOTION_DDOT = 0

CCSDS_OMM_VERS = 2.0
CREATION_DATE  = 
ORIGINATOR     = 

OBJECT_NAME    = YOTSUBA-KULOVER
OBJECT_ID      = 1998-067XN
CENTER_NAME    = EARTH
REF_FRAME      = TEME
TIME_SYSTEM    = UTC
MEAN_ELEMENT_THEORY = SGP/SGP4

EPOCH          = 2025-12-26T14:38:51.631584
MEAN_MOTION    = 15.61332207
ECCENTRICITY   = .00025713
INCLINATION    = 51.6289
RA_OF_ASC_NODE = 70.1673
ARG_OF_PERICENTER = 5.6559
MEAN_ANOMALY   = 354.4463

EPHEMERIS_TYPE = 0
CLASSIFICATION_TYPE = U
NORAD_CAT_ID   = 65941
ELEMENT_SET_NO = 999
REV_AT_EPOCH   = 1202
BSTAR          = .84261791E-3
MEAN_MOTION_DOT = .7325E-3
MEAN_MOTION_DDOT = 0

CCSDS_OMM_VERS = 2.0
CREATION_DATE  = 
ORIGINATOR     = 

OBJECT_NAME    = BOTAN
OBJECT_ID      = 1998-067XP
CENTER_NAME    = EARTH
REF_FRAME      = TEME
TIME_SYSTEM    = UTC
MEAN_ELEMENT_THEORY = SGP/SGP4

EPOCH          = 2025-12-26T21:36:00.133056
MEAN_MOTION    = 15.65926329
ECCENTRICITY   = .00036204
INCLINATION    = 51.6276
RA_OF_ASC_NODE = 67.6002
ARG_OF_PERICENTER = 350.1731
MEAN_ANOMALY   = 9.9193

EPHEMERIS_TYPE = 0
CLASSIFICATION_TYPE = U
NORAD_CAT_ID   = 65942
ELEMENT_SET_NO = 999
REV_AT_EPOCH   = 1208
BSTAR          = .12627246E-2
MEAN_MOTION_DOT = .132903E-2
MEAN_MOTION_DDOT = 0

CCSDS_OMM_VERS = 2.0
CREATION_DATE  = 
ORIGINATOR     = 

OBJECT_NAME    = E-KAGAKU-1
OBJECT_ID      = 1998-067XQ
CENTER_NAME    = EARTH
REF_FRAME      = TEME
TIME_SYSTEM    = UTC
MEAN_ELEMENT_THEORY = SGP/SGP4

EPOCH          = 2025-12-26T11:34:38.215200
MEAN_MOTION    = 15.61326456
ECCENTRICITY   = .00014737
INCLINATION    = 51.6304
RA_OF_ASC_NODE = 70.8185
ARG_OF_PERICENTER = 333.5123
MEAN_ANOMALY   = 26.5795

EPHEMERIS_TYPE = 0
CLASSIFICATION_TYPE = U
NORAD_CAT_ID   = 65943
ELEMENT_SET_NO = 999
REV_AT_EPOCH   = 1200
BSTAR          = .7949653E-3
MEAN_MOTION_DOT = .69021E-3
MEAN_MOTION_DDOT = 0

CCSDS_OMM_VERS = 2.0
CREATION_DATE  = 
ORIGINATOR     = 

OBJECT_NAME    = HRC MONOBLOCK CAMERA
OBJECT_ID      = 1998-067XR
CENTER_NAME    = EARTH
REF_FRAME      = TEME
TIME_SYSTEM    = UTC
MEAN_ELEMENT_THEORY = SGP/SGP4

EPOCH          = 2025-12-27T04:17:20.433408
MEAN_MOTION    = 15.55149311
ECCENTRICITY   = .0001868
INCLINATION    = 51.6303
RA_OF_ASC_NODE = 69.4595
ARG_OF_PERICENTER = 257.1988
MEAN_ANOMALY   = 102.8794

EPHEMERIS_TYPE = 0
CLASSIFICATION_TYPE = U
NORAD_CAT_ID   = 66052
ELEMENT_SET_NO = 999
REV_AT_EPOCH   = 1108
BSTAR          = .56068E-3
MEAN_MOTION_DOT = .3823E-3
MEAN_MOTION_DDOT = 0

CCSDS_OMM_VERS = 2.0
CREATION_DATE  = 
ORIGINATOR     = 

OBJECT_NAME    = HTV-X1
OBJECT_ID      = 2025-241A
CENTER_NAME    = EARTH
REF_FRAME      = TEME
TIME_SYSTEM    = UTC
MEAN_ELEMENT_THEORY = SGP/SGP4

EPOCH          = 2025-12-26T20:34:16.428576
MEAN_MOTION    = 15.49855582
ECCENTRICITY   = .00032301
INCLINATION    = 51.6319
RA_OF_ASC_NODE = 72.5609
ARG_OF_PERICENTER = 307.0606
MEAN_ANOMALY   = 53.0087

EPHEMERIS_TYPE = 0
CLASSIFICATION_TYPE = U
NORAD_CAT_ID   = 66174
ELEMENT_SET_NO = 999
REV_AT_EPOCH   = 51
BSTAR          = .27091986E-3
MEAN_MOTION_DOT = .14958E-3
MEAN_MOTION_DDOT = 0

CCSDS_OMM_VERS = 2.0
CREATION_DATE  = 
ORIGINATOR     = 

OBJECT_NAME    = SZ-21 MODULE
OBJECT_ID      = 2025-246C
CENTER_NAME    = EARTH
REF_FRAME      = TEME
TIME_SYSTEM    = UTC
MEAN_ELEMENT_THEORY = SGP/SGP4

EPOCH          = 2025-12-27T04:08:50.820288
MEAN_MOTION    = 15.63263847
ECCENTRICITY   = .0004159
INCLINATION    = 41.4764
RA_OF_ASC_NODE = 287.9534
ARG_OF_PERICENTER = 338.5057
MEAN_ANOMALY   = 21.5607

EPHEMERIS_TYPE = 0
CLASSIFICATION_TYPE = U
NORAD_CAT_ID   = 66515
ELEMENT_SET_NO = 999
REV_AT_EPOCH   = 670
BSTAR          = .34324E-3
MEAN_MOTION_DOT = .32194E-3
MEAN_MOTION_DDOT = 0

CCSDS_OMM_VERS = 2.0
CREATION_DATE  = 
ORIGINATOR     = 

OBJECT_NAME    = SHENZHOU-22
OBJECT_ID      = 2025-272A
CENTER_NAME    = EARTH
REF_FRAME      = TEME
TIME_SYSTEM    = UTC
MEAN_ELEMENT_THEORY = SGP/SGP4

EPOCH          = 2025-12-26T22:21:45.161280
MEAN_MOTION    = 15.59735336
ECCENTRICITY   = .00087329
INCLINATION    = 41.4675
RA_OF_ASC_NODE = 290.5114
ARG_OF_PERICENTER = 154.9410
MEAN_ANOMALY   = 205.1854

EPHEMERIS_TYPE = 0
CLASSIFICATION_TYPE = U
NORAD_CAT_ID   = 66645
ELEMENT_SET_NO = 999
REV_AT_EPOCH   = 26598
BSTAR          = .23104085E-3
MEAN_MOTION_DOT = .18761E-3
MEAN_MOTION_DDOT = 0

